{
  "type": "FeatureCollection",
  "features": [
    {
      "type": "Feature",
      "properties": {
        "name": "Mali",
        "iso": "ML"
      },
      "geometry": {
        "type": "Polygon",
        "coordinates": [
          [
            [
              -4.8,
              15.0
            ],
            [
              -4.35,
              16.09
            ],
            [
              -3.52,
              16.58
            ],
            [
              -2.83,
              17.0
            ],
            [
              -1.07,
              16.54
            ],
            [
              0.06,
              17.92
            ],
            [
              1.17,
              19.16
            ],
            [
              2.39,
              20.18
            ],
            [
              3.98,
              19.85
            ],
            [
              4.26,
              19.14
            ],
            [
              4.21,
              17.0
            ],
            [
              4.0,
              16.85
            ],
            [
              3.52,
              15.36
            ],
            [
              3.03,
              15.0
            ],
            [
              1.92,
              14.5
            ],
            [
              1.36,
              14.41
            ],
            [
              0.96,
              14.99
            ],
            [
              0.37,
              14.91
            ],
            [
              -0.27,
              14.92
            ],
            [
              -0.72,
              15.08
            ],
            [
              -1.07,
              14.59
            ],
            [
              -2.0,
              14.56
            ],
            [
              -2.5,
              14.23
            ],
            [
              -3.12,
              13.56
            ],
            [
              -3.52,
              13.28
            ],
            [
              -4.0,
              13.0
            ],
            [
              -4.43,
              12.34
            ],
            [
              -5.23,
              11.72
            ],
            [
              -5.47,
              10.37
            ],
            [
              -5.97,
              10.21
            ],
            [
              -6.62,
              10.4
            ],
            [
              -7.62,
              10.14
            ],
            [
              -7.98,
              10.23
            ],
            [
              -8.37,
              11.39
            ],
            [
              -9.74,
              12.03
            ],
            [
              -10.27,
              12.21
            ],
            [
              -11.5,
              12.44
            ],
            [
              -11.51,
              14.0
            ],
            [
              -10.94,
              15.14
            ],
            [
              -10.12,
              15.37
            ],
            [
              -9.42,
              15.44
            ],
            [
              -9.32,
              16.0
            ],
            [
              -9.56,
              16.45
            ],
            [
              -9.86,
              17.0
            ],
            [
              -9.83,
              17.88
            ],
            [
              -9.83,
              19.0
            ],
            [
              -9.31,
              19.57
            ],
            [
              -8.99,
              20.56
            ],
            [
              -8.99,
              21.0
            ],
            [
              -5.6,
              20.65
            ],
            [
              -4.8,
              20.0
            ],
            [
              -4.04,
              19.69
            ],
            [
              -3.58,
              19.0
            ],
            [
              -3.99,
              18.33
            ],
            [
              -4.69,
              18.0
            ],
            [
              -5.32,
              17.65
            ],
            [
              -4.8,
              15.0
            ]
          ]
        ]
      }
    },
    {
      "type": "Feature",
      "properties": {
        "name": "Togo",
        "iso": "TG"
      },
      "geometry": {
        "type": "Polygon",
        "coordinates": [
          [
            [
              0.23,
              11.01
            ],
            [
              0.46,
              10.86
            ],
            [
              0.49,
              10.35
            ],
            [
              0.77,
              10.36
            ],
            [
              1.02,
              10.65
            ],
            [
              1.36,
              10.0
            ],
            [
              1.62,
              9.65
            ],
            [
              1.64,
              9.47
            ],
            [
              1.46,
              9.0
            ],
            [
              1.23,
              8.36
            ],
            [
              1.02,
              7.98
            ],
            [
              1.2,
              7.18
            ],
            [
              1.19,
              6.65
            ],
            [
              1.0,
              6.15
            ],
            [
              0.84,
              6.08
            ],
            [
              0.54,
              6.32
            ],
            [
              0.44,
              6.68
            ],
            [
              0.27,
              7.0
            ],
            [
              -0.05,
              7.0
            ],
            [
              -0.12,
              7.65
            ],
            [
              -0.05,
              8.0
            ],
            [
              0.1,
              8.65
            ],
            [
              0.0,
              9.0
            ],
            [
              -0.25,
              9.36
            ],
            [
              -0.36,
              9.72
            ],
            [
              -0.26,
              10.0
            ],
            [
              -0.08,
              10.65
            ],
            [
              0.23,
              11.01
            ]
          ]
        ]
      }
    }
  ]
}